CCSDS_OMM_VERS = 2.0
CREATION_DATE  = 
ORIGINATOR     = 

OBJECT_NAME    = GXIBA-1
OBJECT_ID      = 1998-067YA
CENTER_NAME    = EARTH
REF_FRAME      = TEME
TIME_SYSTEM    = UTC
MEAN_ELEMENT_THEORY = SGP/SGP4

EPOCH          = 2026-03-17T20:41:07.448928
MEAN_MOTION    = 15.55683009
ECCENTRICITY   = .001175
INCLINATION    = 51.6316
RA_OF_ASC_NODE = 30.7297
ARG_OF_PERICENTER = 204.5716
MEAN_ANOMALY   = 155.4717

EPHEMERIS_TYPE = 0
CLASSIFICATION_TYPE = U
NORAD_CAT_ID   = 67684
ELEMENT_SET_NO = 999
REV_AT_EPOCH   = 606
BSTAR          = .86157E-3
MEAN_MOTION_DOT = .60522E-3
MEAN_MOTION_DDOT = 0

CCSDS_OMM_VERS = 2.0
CREATION_DATE  = 
ORIGINATOR     = 

OBJECT_NAME    = CORAL
OBJECT_ID      = 1998-067YB
CENTER_NAME    = EARTH
REF_FRAME      = TEME
TIME_SYSTEM    = UTC
MEAN_ELEMENT_THEORY = SGP/SGP4

EPOCH          = 2026-03-17T03:00:35.140608
MEAN_MOTION    = 15.52891550
ECCENTRICITY   = .0011539
INCLINATION    = 51.6322
RA_OF_ASC_NODE = 34.8103
ARG_OF_PERICENTER = 208.7599
MEAN_ANOMALY   = 151.2756

EPHEMERIS_TYPE = 0
CLASSIFICATION_TYPE = U
NORAD_CAT_ID   = 67685
ELEMENT_SET_NO = 999
REV_AT_EPOCH   = 594
BSTAR          = .53452E-3
MEAN_MOTION_DOT = .33584E-3
MEAN_MOTION_DDOT = 0

CCSDS_OMM_VERS = 2.0
CREATION_DATE  = 
ORIGINATOR     = 

OBJECT_NAME    = ISS OBJECT YC
OBJECT_ID      = 1998-067YC
CENTER_NAME    = EARTH
REF_FRAME      = TEME
TIME_SYSTEM    = UTC
MEAN_ELEMENT_THEORY = SGP/SGP4

EPOCH          = 2026-03-17T04:21:00.401760
MEAN_MOTION    = 15.53596478
ECCENTRICITY   = .0008506
INCLINATION    = 51.6318
RA_OF_ASC_NODE = 34.4356
ARG_OF_PERICENTER = 178.1520
MEAN_ANOMALY   = 181.9503

EPHEMERIS_TYPE = 0
CLASSIFICATION_TYPE = U
NORAD_CAT_ID   = 67686
ELEMENT_SET_NO = 999
REV_AT_EPOCH   = 595
BSTAR          = .65715727E-3
MEAN_MOTION_DOT = .42474E-3
MEAN_MOTION_DDOT = 0

CCSDS_OMM_VERS = 2.0
CREATION_DATE  = 
ORIGINATOR     = 

OBJECT_NAME    = LEOPARD
OBJECT_ID      = 1998-067YD
CENTER_NAME    = EARTH
REF_FRAME      = TEME
TIME_SYSTEM    = UTC
MEAN_ELEMENT_THEORY = SGP/SGP4

EPOCH          = 2026-03-17T20:04:31.289664
MEAN_MOTION    = 15.52713902
ECCENTRICITY   = .0008197
INCLINATION    = 51.6319
RA_OF_ASC_NODE = 31.3108
ARG_OF_PERICENTER = 184.0691
MEAN_ANOMALY   = 176.0233

EPHEMERIS_TYPE = 0
CLASSIFICATION_TYPE = U
NORAD_CAT_ID   = 67687
ELEMENT_SET_NO = 999
REV_AT_EPOCH   = 597
BSTAR          = .5022E-3
MEAN_MOTION_DOT = .31269E-3
MEAN_MOTION_DDOT = 0

CCSDS_OMM_VERS = 2.0
CREATION_DATE  = 
ORIGINATOR     = 

OBJECT_NAME    = ISS OBJECT YE
OBJECT_ID      = 1998-067YE
CENTER_NAME    = EARTH
REF_FRAME      = TEME
TIME_SYSTEM    = UTC
MEAN_ELEMENT_THEORY = SGP/SGP4

EPOCH          = 2026-03-17T04:26:35.359872
MEAN_MOTION    = 15.53273796
ECCENTRICITY   = .00082543
INCLINATION    = 51.6319
RA_OF_ASC_NODE = 34.4615
ARG_OF_PERICENTER = 178.8227
MEAN_ANOMALY   = 181.2784

EPHEMERIS_TYPE = 0
CLASSIFICATION_TYPE = U
NORAD_CAT_ID   = 67688
ELEMENT_SET_NO = 999
REV_AT_EPOCH   = 587
BSTAR          = .6148397E-3
MEAN_MOTION_DOT = .39222E-3
MEAN_MOTION_DDOT = 0

CCSDS_OMM_VERS = 2.0
CREATION_DATE  = 
ORIGINATOR     = 

OBJECT_NAME    = CREW DRAGON 12
OBJECT_ID      = 2026-031A
CENTER_NAME    = EARTH
REF_FRAME      = TEME
TIME_SYSTEM    = UTC
MEAN_ELEMENT_THEORY = SGP/SGP4

EPOCH          = 2026-03-17T09:17:12.433344
MEAN_MOTION    = 15.48344038
ECCENTRICITY   = .00062325
INCLINATION    = 51.6338
RA_OF_ASC_NODE = 34.3055
ARG_OF_PERICENTER = 201.4845
MEAN_ANOMALY   = 158.5882

EPHEMERIS_TYPE = 0
CLASSIFICATION_TYPE = U
NORAD_CAT_ID   = 67796
ELEMENT_SET_NO = 999
REV_AT_EPOCH   = 55744
BSTAR          = .24295645E-3
MEAN_MOTION_DOT = .12661E-3
MEAN_MOTION_DDOT = 0

